NORAD_CAT_ID,OBJECT_NAME,OBJECT_TYPE,EPOCH,MEAN_MOTION,ECCENTRICITY,INCLINATION,RA_OF_ASC_NODE,ARG_OF_PERICENTER,MEAN_ANOMALY,BSTAR,MEAN_MOTION_DOT,MEAN_MOTION_DDOT,TLE_LINE0,TLE_LINE1,TLE_LINE2,SEMIMAJOR_AXIS,PERIOD,APOGEE,PERIGEE,DECAYED
56807.0,STARLINK-6073,PAYLOAD,2023-09-19 19:19:19,15.69908858,0.0003529,69.999,99.7072,268.3499,91.7292,-1.9561e-05,-2.563e-05,0.0,0 STARLINK-6073,1 56807U 23078AS  23262.80509159 -.00002563  00000-0 -19561-4 0  9992,2 56807  69.9990  99.7072 0003529 268.3499  91.7292 15.69908858 17810,6737.295,91.725,361.537,356.782,0.0
56807.0,STARLINK-6073,PAYLOAD,2023-09-20 13:40:21,15.69923543,0.0003615,69.999,97.5567,269.742,90.3361,1.6951e-05,1.826e-05,0.0,0 STARLINK-6073,1 56807U 23078AS  23263.56968822  .00001826  00000-0  16951-4 0  9991,2 56807  69.9990  97.5567 0003615 269.7420  90.3361 15.69923543 17674,6737.253,91.724,361.553,356.682,0.0
56807.0,STARLINK-6073,PAYLOAD,2023-09-20 16:43:51,15.69927786,0.0003123,69.9999,97.1992,255.0389,105.0461,2.5488e-05,2.853e-05,0.0,0 STARLINK-6073,1 56807U 23078AS  23263.69711949  .00002853  00000-0  25488-4 0  9997,2 56807  69.9999  97.1992 0003123 255.0389 105.0461 15.69927786 17956,6737.241,91.724,361.21,357.002,0.0
56807.0,STARLINK-6073,PAYLOAD,2023-09-20 21:19:06,15.69927078,0.0003276,70.0003,96.6622,267.1195,92.9626,2.6786e-05,3.01e-05,0.0,0 STARLINK-6073,1 56807U 23078AS  23263.88827102  .00003010  00000-0  26786-4 0  9995,2 56807  70.0003  96.6622 0003276 267.1195  92.9626 15.69927078 17723,6737.243,91.724,361.315,356.901,0.0
56807.0,STARLINK-6073,PAYLOAD,2023-09-21 00:22:36,15.69926909,0.000351,69.9989,96.3036,268.607,91.4723,2.1501e-05,2.374e-05,0.0,0 STARLINK-6073,1 56807U 23078AS  23264.01570465  .00002374  00000-0  21501-4 0  9990,2 56807  69.9989  96.3036 0003510 268.6070  91.4723 15.69926909 17744,6737.243,91.724,361.473,356.743,0.0
56807.0,STARLINK-6073,PAYLOAD,2023-09-21 15:40:08,15.69922184,0.0003321,69.9983,94.5117,260.7247,99.3573,2.9479e-05,3.333e-05,0.0,0 STARLINK-6073,1 56807U 23078AS  23264.65287423  .00003333  00000-0  29479-4 0  9997,2 56807  69.9983  94.5117 0003321 260.7247  99.3573 15.69922184 18109,6737.257,91.724,361.359,356.884,0.0
56807.0,STARLINK-6073,PAYLOAD,2023-09-21 21:47:08,15.69920843,0.0003476,69.9988,93.7958,263.7212,96.3588,2.3604e-05,2.626e-05,0.0,0 STARLINK-6073,1 56807U 23078AS  23264.90774233  .00002626  00000-0  23604-4 0  9993,2 56807  69.9988  93.7958 0003476 263.7212  96.3588 15.69920843 17881,6737.26,91.724,361.467,356.784,0.0
56807.0,STARLINK-6073,PAYLOAD,2023-09-22 13:04:39,15.69937255,0.0003648,69.9986,92.0046,259.1834,100.8951,4.5018e-06,3.29e-06,0.0,0 STARLINK-6073,1 56807U 23078AS  23265.54489953  .00000329  00000-0  45018-5 0  9998,2 56807  69.9986  92.0046 0003648 259.1834 100.8951 15.69937255 17980,6737.214,91.723,361.536,356.621,0.0
56807.0,STARLINK-6073,PAYLOAD,2023-09-22 16:08:10,15.6991766,0.0003283,69.999,91.6455,260.894,99.1884,-5.5387e-05,-6.865e-05,0.0,0 STARLINK-6073,1 56807U 23078AS  23265.67234246 -.00006865  00000-0 -55387-4 0  9997,2 56807  69.9990  91.6455 0003283 260.8940  99.1884 15.69917660 18261,6737.27,91.725,361.346,356.923,0.0
56807.0,STARLINK-6073,PAYLOAD,2023-09-22 20:43:25,15.699248,0.0003377,69.9991,91.1077,267.6386,92.4423,-8.6405e-06,-1.252e-05,0.0,0 STARLINK-6073,1 56807U 23078AS  23265.86348956 -.00001252  00000-0 -86405-5 0  9993,2 56807  69.9991  91.1077 0003377 267.6386  92.4423 15.69924800 18034,6737.249,91.724,361.389,356.839,0.0
56807.0,STARLINK-6073,PAYLOAD,2023-09-22 22:15:10,15.6992616,0.0003248,69.9997,90.9293,266.27,93.8124,-7.6738e-06,-1.135e-05,0.0,0 STARLINK-6073,1 56807U 23078AS  23265.92720562 -.00001135  00000-0 -76738-5 0  9995,2 56807  69.9997  90.9293 0003248 266.2700  93.8124 15.69926160 18303,6737.245,91.724,361.299,356.922,0.0
56807.0,STARLINK-6073,PAYLOAD,2023-09-23 13:32:41,15.69924699,0.000327,69.9998,89.1386,266.1482,93.934,1.9165e-05,2.092e-05,0.0,0 STARLINK-6073,1 56807U 23078AS  23266.56437456  .00002092  00000-0  19165-4 0  9994,2 56807  69.9998  89.1386 0003270 266.1482  93.9340 15.69924699 18146,6737.249,91.724,361.318,356.911,0.0
56807.0,STARLINK-6073,PAYLOAD,2023-09-23 21:11:27,15.69934316,0.0003112,70.0002,88.2429,265.7617,94.3223,4.0024e-05,4.604e-05,0.0,0 STARLINK-6073,1 56807U 23078AS  23266.88295396  .00004604  00000-0  40024-4 0  9993,2 56807  70.0002  88.2429 0003112 265.7617  94.3223 15.69934316 18459,6737.222,91.724,361.184,356.99,0.0
56807.0,STARLINK-6073,PAYLOAD,2023-09-24 14:00:43,15.69921299,0.0003731,69.9998,86.271,271.4973,88.5795,1.3737e-05,1.439e-05,0.0,0 STARLINK-6073,1 56807U 23078AS  23267.58384219  .00001439  00000-0  13737-4 0  9998,2 56807  69.9998  86.2710 0003731 271.4973  88.5795 15.69921299 18306,6737.259,91.724,361.638,356.61,0.0
56807.0,STARLINK-6073,PAYLOAD,2023-09-24 15:32:29,15.69921757,0.0003484,70.0005,86.0932,265.8368,94.2429,5.3012e-06,4.25e-06,0.0,0 STARLINK-6073,1 56807U 23078AS  23267.64755825  .00000425  00000-0  53012-5 0  9995,2 56807  70.0005  86.0932 0003484 265.8368  94.2429 15.69921757 18578,6737.258,91.724,361.47,356.776,0.0
56807.0,STARLINK-6073,PAYLOAD,2023-09-24 21:39:29,15.69926482,0.0003511,69.9999,85.3763,266.3572,93.7222,1.9403e-05,2.121e-05,0.0,0 STARLINK-6073,1 56807U 23078AS  23267.90242407  .00002121  00000-0  19403-4 0  9991,2 56807  69.9999  85.3763 0003511 266.3572  93.7222 15.69926482 18356,6737.244,91.724,361.475,356.744,0.0
56807.0,STARLINK-6073,PAYLOAD,2023-09-25 12:57:00,15.69930975,0.0004495,70.0,83.5837,264.2089,95.8594,2.1769e-05,2.406e-05,0.0,0 STARLINK-6073,1 56807U 23078AS  23268.53958575  .00002406  00000-0  21769-4 0  9995,2 56807  70.0000  83.5837 0004495 264.2089  95.8594 15.69930975 18454,6737.231,91.724,362.125,356.068,0.0
56807.0,STARLINK-6073,PAYLOAD,2023-09-25 16:00:31,15.69912484,0.0003331,70.0012,83.2277,276.8043,83.2773,-2.4922e-05,-3.207e-05,0.0,0 STARLINK-6073,1 56807U 23078AS  23268.66702828 -.00003207  00000-0 -24922-4 0  9993,2 56807  70.0012  83.2277 0003331 276.8043  83.2773 15.69912484 18735,6737.284,91.725,361.394,356.905,0.0
56807.0,STARLINK-6073,PAYLOAD,2023-09-25 20:35:46,15.69916682,0.0003447,69.9984,82.686,273.3482,86.732,-1.7213e-05,-2.281e-05,0.0,0 STARLINK-6073,1 56807U 23078AS  23268.85817510 -.00002281  00000-0 -17213-4 0  9995,2 56807  69.9984  82.6860 0003447 273.3482  86.7320 15.69916682 18503,6737.272,91.725,361.46,356.815,0.0
56807.0,STARLINK-6073,PAYLOAD,2023-09-26 14:56:47,15.69926137,0.0003644,69.9983,80.5364,271.7761,88.3017,2.2774e-05,2.527e-05,0.0,0 STARLINK-6073,1 56807U 23078AS  23269.62277548  .00002527  00000-0  22774-4 0  9991,2 56807  69.9983  80.5364 0003644 271.7761  88.3017 15.69926137 18629,6737.245,91.724,361.565,356.655,0.0
56807.0,STARLINK-6073,PAYLOAD,2023-09-26 21:03:48,15.69938669,0.0003268,69.9985,79.8198,270.6279,89.4542,8.6018e-05,0.00010149,0.0,0 STARLINK-6073,1 56807U 23078AS  23269.87763974  .00010149  00000-0  86018-4 0  9991,2 56807  69.9985  79.8198 0003268 270.6279  89.4542 15.69938669 18663,6737.209,91.723,361.276,356.873,0.0
56807.0,STARLINK-6073,PAYLOAD,2023-09-27 04:42:34,15.69915016,0.0003606,69.9995,78.9253,264.2227,95.8557,-1.8128e-05,-2.391e-05,0.0,0 STARLINK-6073,1 56807U 23078AS  23270.19622798 -.00002391  00000-0 -18128-4 0  9995,2 56807  69.9995  78.9253 0003606 264.2227  95.8557 15.69915016 18976,6737.277,91.725,361.572,356.713,0.0
56807.0,STARLINK-6073,PAYLOAD,2023-09-27 12:21:20,15.69910724,0.0003237,70.0004,78.0297,261.5113,98.5716,-1.8564e-05,-2.443e-05,0.0,0 STARLINK-6073,1 56807U 23078AS  23270.51481584 -.00002443  00000-0 -18564-4 0  9999,2 56807  70.0004  78.0297 0003237 261.5113  98.5716 15.69910724 18768,6737.289,91.725,361.335,356.974,0.0
56807.0,STARLINK-6073,PAYLOAD,2023-09-27 21:31:50,15.69930752,0.0002773,69.9997,76.955,265.524,94.5639,0.00010524,0.00012463,0.0,0 STARLINK-6073,1 56807U 23078AS  23270.89711635  .00012463  00000-0  10524-3 0  9991,2 56807  69.9997  76.9550 0002773 265.5240  94.5639 15.69930752 19083,6737.232,91.724,360.965,357.229,0.0
56807.0,STARLINK-6073,PAYLOAD,2023-09-28 14:21:06,15.69938751,0.0003162,69.9991,74.9833,260.6251,99.4587,7.4102e-05,8.712e-05,0.0,0 STARLINK-6073,1 56807U 23078AS  23271.59799452  .00008712  00000-0  74102-4 0  9997,2 56807  69.9991  74.9833 0003162 260.6251  99.4587 15.69938751 18936,6737.209,91.723,361.205,356.944,0.0
56807.0,STARLINK-6073,PAYLOAD,2023-09-28 20:28:07,15.6992689,0.0003647,69.9996,74.2664,272.6434,87.4344,2.8297e-05,3.191e-05,0.0,0 STARLINK-6073,1 56807U 23078AS  23271.85286324  .00003191  00000-0  28297-4 0  9995,2 56807  69.9996  74.2664 0003647 272.6434  87.4344 15.69926890 18973,6737.243,91.724,361.565,356.651,0.0
56807.0,STARLINK-6073,PAYLOAD,2023-09-29 13:17:23,15.69932095,0.0003448,69.9987,72.2972,261.8615,98.219,3.5946e-05,4.113e-05,0.0,0 STARLINK-6073,1 56807U 23078AS  23272.55374565  .00004113  00000-0  35946-4 0  9992,2 56807  69.9987  72.2972 0003448 261.8615  98.2190 15.69932095 19089,6737.228,91.724,361.416,356.77,0.0
56807.0,STARLINK-6073,PAYLOAD,2023-09-29 19:24:23,15.69939818,0.0003292,69.9991,71.5808,263.1102,96.9719,4.1854e-05,4.826e-05,0.0,0 STARLINK-6073,1 56807U 23078AS  23272.80860869  .00004826  00000-0  41854-4 0  9993,2 56807  69.9991  71.5808 0003292 263.1102  96.9719 15.69939818 19124,6737.206,91.723,361.289,356.853,0.0
56807.0,STARLINK-6073,PAYLOAD,2023-09-30 10:41:55,15.69917271,0.0003171,70.0007,69.7866,279.5656,80.5181,-8.3959e-07,-3.13e-06,0.0,0 STARLINK-6073,1 56807U 23078AS  23273.44578552 -.00000313  00000-0 -83959-6 0  9992,2 56807  70.0007  69.7866 0003171 279.5656  80.5181 15.69917271 19489,6737.271,91.725,361.272,356.999,0.0
56807.0,STARLINK-6073,PAYLOAD,2023-09-30 18:20:41,15.69934335,0.0003023,70.0016,68.8927,267.1353,92.9497,6.0147e-05,7.028e-05,0.0,0 STARLINK-6073,1 56807U 23078AS  23273.76436440  .00007028  00000-0  60147-4 0  9996,2 56807  70.0016  68.8927 0003023 267.1353  92.9497 15.69934335 19533,6737.222,91.724,361.124,357.05,0.0
